{"type": "FeatureCollection", "features": [ {"type": "Feature", "properties": {"norad_id": 66660, "name": "K-HERO", "group": "last-30-days", "lat": -73.12601633831619, "lon": 66.18308091687108, "alt_km": 588.3739784241416, "timestamp": "2025-12-11T13:55:00.915264+00:00", "meta": {"OBJECT_NAME": "K-HERO", "OBJECT_ID": "2025-274L", "EPOCH": "2025-12-11T06:20:35.656512", "MEAN_MOTION": 14.92947595, "ECCENTRICITY": 0.00127781, "INCLINATION": 97.7386, "RA_OF_ASC_NODE": 272.5079, "ARG_OF_PERICENTER": 286.38, "MEAN_ANOMALY": 73.6015, "EPHEMERIS_TYPE": 0, "CLASSIFICATION_TYPE": "U", "NORAD_CAT_ID": 66660, "ELEMENT_SET_NO": 999, "REV_AT_EPOCH": 218, "BSTAR": 0.00050893602, "MEAN_MOTION_DOT": 5.236e-05, "MEAN_MOTION_DDOT": 0}, "tle": {"line1": "1 66660U 25274L   25345.26430158  .00005236  00000+0  50894-3 0  9996", "line2": "2 66660  97.7386 272.5079 0012778 286.3800  73.6015 14.92947595  2188"}}, "geometry": {"type": "Point", "coordinates": [66.18308091687108, -73.12601633831619]}}, {"type": "Feature", "properties": {"norad_id": 66661, "name": "SNUGLITE-III", "group": "last-30-days", "lat": -79.55537876554634, "lon": 45.28770983076179, "alt_km": 587.0739978493666, "timestamp": "2025-12-11T13:55:00.915287+00:00", "meta": {"OBJECT_NAME": "SNUGLITE-III", "OBJECT_ID": "2025-274M", "EPOCH": "2025-12-11T06:18:29.170368", "MEAN_MOTION": 14.93085688, "ECCENTRICITY": 0.00134522, "INCLINATION": 97.7385, "RA_OF_ASC_NODE": 272.5094, "ARG_OF_PERICENTER": 287.6094, "MEAN_ANOMALY": 72.3656, "EPHEMERIS_TYPE": 0, "CLASSIFICATION_TYPE": "U", "NORAD_CAT_ID": 66661, "ELEMENT_SET_NO": 999, "REV_AT_EPOCH": 218, "BSTAR": 0.00040669931, "MEAN_MOTION_DOT": 4.187e-05, "MEAN_MOTION_DDOT": 0}, "tle": {"line1": "1 66661U 25274M   25345.26283762  .00004187  00000+0  40670-3 0  9999", "line2": "2 66661  97.7385 272.5094 0013452 287.6094  72.3656 14.93085688  2188"}}, "geometry": {"type": "Point", "coordinates": [45.28770983076179, -79.55537876554634]}}, {"type": "Feature", "properties": {"norad_id": 66662, "name": "2025-274N", "group": "last-30-days", "lat": -81.3442001654184, "lon": 29.538890713496574, "alt_km": 586.4002798080719, "timestamp": "2025-12-11T13:55:00.915297+00:00", "meta": {"OBJECT_NAME": "2025-274N", "OBJECT_ID": "2025-274N", "EPOCH": "2025-12-11T04:41:09.280320", "MEAN_MOTION": 14.93135946, "ECCENTRICITY": 0.00139156, "INCLINATION": 97.7384, "RA_OF_ASC_NODE": 272.4443, "ARG_OF_PERICENTER": 287.3948, "MEAN_ANOMALY": 72.5749, "EPHEMERIS_TYPE": 0, "CLASSIFICATION_TYPE": "U", "NORAD_CAT_ID": 66662, "ELEMENT_SET_NO": 999, "REV_AT_EPOCH": 217, "BSTAR": 0.00044941904, "MEAN_MOTION_DOT": 4.64e-05, "MEAN_MOTION_DDOT": 0}, "tle": {"line1": "1 66662U 25274N   25345.19524630  .00004640  00000+0  44942-3 0  9994", "line2": "2 66662  97.7384 272.4443 0013915 287.3948  72.5749 14.93135946  2171"}}, "geometry": {"type": "Point", "coordinates": [29.538890713496574, -81.3442001654184]}}, {"type": "Feature", "properties": {"norad_id": 66663, "name": "KSLV-II R/B", "group": "last-30-days", "lat": 47.82710310333156, "lon": 101.56798862776807, "alt_km": 606.140396102227, "timestamp": "2025-12-11T13:55:00.915308+00:00", "meta": {"OBJECT_NAME": "KSLV-II R/B", "OBJECT_ID": "2025-274P", "EPOCH": "2025-12-10T16:28:46.841664", "MEAN_MOTION": 14.97260202, "ECCENTRICITY": 0.00515006, "INCLINATION": 97.7409, "RA_OF_ASC_NODE": 272.0473, "ARG_OF_PERICENTER": 326.4324, "MEAN_ANOMALY": 33.3638, "EPHEMERIS_TYPE": 0, "CLASSIFICATION_TYPE": "U", "NORAD_CAT_ID": 66663, "ELEMENT_SET_NO": 999, "REV_AT_EPOCH": 210, "BSTAR": 0.00042412813, "MEAN_MOTION_DOT": 4.986e-05, "MEAN_MOTION_DDOT": 0}, "tle": {"line1": "1 66663U 25274P   25344.68665326  .00004986  00000+0  42413-3 0  9990", "line2": "2 66663  97.7409 272.0473 0051500 326.4324  33.3638 14.97260202  2107"}}, "geometry": {"type": "Point", "coordinates": [101.56798862776807, 47.82710310333156]}}, {"type": "Feature", "properties": {"norad_id": 66664, "name": "SOYUZ-MS 28", "group": "last-30-days", "lat": 26.35030561744162, "lon": 171.32768744314035, "alt_km": 417.0466415974661, "timestamp": "2025-12-11T13:55:00.915321+00:00", "meta": {"OBJECT_NAME": "SOYUZ-MS 28", "OBJECT_ID": "2025-275A", "EPOCH": "2025-12-11T04:28:53.401152", "MEAN_MOTION": 15.49499993, "ECCENTRICITY": 0.00033343, "INCLINATION": 51.6309, "RA_OF_ASC_NODE": 150.1691, "ARG_OF_PERICENTER": 234.1557, "MEAN_ANOMALY": 125.9122, "EPHEMERIS_TYPE": 0, "CLASSIFICATION_TYPE": "U", "NORAD_CAT_ID": 66664, "ELEMENT_SET_NO": 999, "REV_AT_EPOCH": 128, "BSTAR": 0.00030173842, "MEAN_MOTION_DOT": 0.00016503, "MEAN_MOTION_DDOT": 0}, "tle": {"line1": "1 66664U 25275A   25345.18672918  .00016503  00000+0  30174-3 0  9992", "line2": "2 66664  51.6309 150.1691 0003334 234.1557 125.9122 15.49499993  1282"}}, "geometry": {"type": "Point", "coordinates": [171.32768744314035, 26.35030561744162]}}, {"type": "Feature", "properties": {"norad_id": 66791, "name": "STARLINK-35867", "group": "last-30-days", "lat": -27.948746949005457, "lon": 114.02378538849591, "alt_km": 304.6515813812266, "timestamp": "2025-12-11T13:55:00.915337+00:00", "meta": {"OBJECT_NAME": "STARLINK-35867", "OBJECT_ID": "2025-278A", "EPOCH": "2025-12-11T06:00:02.999808", "MEAN_MOTION": 15.90474597, "ECCENTRICITY": 0.00019866, "INCLINATION": 42.9981, "RA_OF_ASC_NODE": 261.3608, "ARG_OF_PERICENTER": 276.0528, "MEAN_ANOMALY": 216.875, "EPHEMERIS_TYPE": 0, "CLASSIFICATION_TYPE": "U", "NORAD_CAT_ID": 66791, "ELEMENT_SET_NO": 999, "REV_AT_EPOCH": 271, "BSTAR": -0.0035089633, "MEAN_MOTION_DOT": -0.0100119, "MEAN_MOTION_DDOT": 0}, "tle": {"line1": "1 66791U 25278A   25345.25003472 -.01001190  00000+0 -35090-2 0  9997", "line2": "2 66791  42.9981 261.3608 0001986 276.0528 216.8750 15.90474597  2714"}}, "geometry": {"type": "Point", "coordinates": [114.02378538849591, -27.948746949005457]}}, {"type": "Feature", "properties": {"norad_id": 66792, "name": "STARLINK-35990", "group": "last-30-days", "lat": -28.80364978381373, "lon": 115.47504215391878, "alt_km": 304.5867976814261, "timestamp": "2025-12-11T13:55:00.915348+00:00", "meta": {"OBJECT_NAME": "STARLINK-35990", "OBJECT_ID": "2025-278B", "EPOCH": "2025-12-11T06:00:02.999808", "MEAN_MOTION": 15.90516714, "ECCENTRICITY": 0.00019329, "INCLINATION": 42.9979, "RA_OF_ASC_NODE": 261.3571, "ARG_OF_PERICENTER": 275.2628, "MEAN_ANOMALY": 219.1601, "EPHEMERIS_TYPE": 0, "CLASSIFICATION_TYPE": "U", "NORAD_CAT_ID": 66792, "ELEMENT_SET_NO": 999, "REV_AT_EPOCH": 271, "BSTAR": -0.0035450851, "MEAN_MOTION_DOT": -0.01012359, "MEAN_MOTION_DDOT": 0}, "tle": {"line1": "1 66792U 25278B   25345.25003472 -.01012359  00000+0 -35451-2 0  9998", "line2": "2 66792  42.9979 261.3571 0001932 275.2628 219.1601 15.90516714  2713"}}, "geometry": {"type": "Point", "coordinates": [115.47504215391878, -28.80364978381373]}}, {"type": "Feature", "properties": {"norad_id": 66793, "name": "STARLINK-36051", "group": "last-30-days", "lat": -31.476542962545473, "lon": 120.37456235877542, "alt_km": 304.46441513246464, "timestamp": "2025-12-11T13:55:00.915358+00:00", "meta": {"OBJECT_NAME": "STARLINK-36051", "OBJECT_ID": "2025-278C", "EPOCH": "2025-12-11T06:00:02.999808", "MEAN_MOTION": 15.90598546, "ECCENTRICITY": 0.00018668, "INCLINATION": 42.9982, "RA_OF_ASC_NODE": 261.3446, "ARG_OF_PERICENTER": 274.2229, "MEAN_ANOMALY": 225.1298, "EPHEMERIS_TYPE": 0, "CLASSIFICATION_TYPE": "U", "NORAD_CAT_ID": 66793, "ELEMENT_SET_NO": 999, "REV_AT_EPOCH": 261, "BSTAR": -0.0035763815, "MEAN_MOTION_DOT": -0.01024187, "MEAN_MOTION_DDOT": 0}, "tle": {"line1": "1 66793U 25278C   25345.25003472 -.01024187  00000+0 -35764-2 0  9998", "line2": "2 66793  42.9982 261.3446 0001866 274.2229 225.1298 15.90598546  2612"}}, "geometry": {"type": "Point", "coordinates": [120.37456235877542, -31.476542962545473]}}, {"type": "Feature", "properties": {"norad_id": 66794, "name": "STARLINK-36062", "group": "last-30-days", "lat": -30.35605524949671, "lon": 118.24673638421767, "alt_km": 304.52727965971917, "timestamp": "2025-12-11T13:55:00.915368+00:00", "meta": {"OBJECT_NAME": "STARLINK-36062", "OBJECT_ID": "2025-278D", "EPOCH": "2025-12-11T06:00:02.999808", "MEAN_MOTION": 15.90555361, "ECCENTRICITY": 0.00019164, "INCLINATION": 42.9981, "RA_OF_ASC_NODE": 261.3499, "ARG_OF_PERICENTER": 275.0597, "MEAN_ANOMALY": 222.1922, "EPHEMERIS_TYPE": 0, "CLASSIFICATION_TYPE": "U", "NORAD_CAT_ID": 66794, "ELEMENT_SET_NO": 999, "REV_AT_EPOCH": 271, "BSTAR": -0.0035422236, "MEAN_MOTION_DOT": -0.01013434, "MEAN_MOTION_DDOT": 0}, "tle": {"line1": "1 66794U 25278D   25345.25003472 -.01013434  00000+0 -35422-2 0  9993", "line2": "2 66794  42.9981 261.3499 0001916 275.0597 222.1922 15.90555361  2713"}}, "geometry": {"type": "Point", "coordinates": [118.24673638421767, -30.35605524949671]}}, {"type": "Feature", "properties": {"norad_id": 66795, "name": "STARLINK-36047", "group": "last-30-days", "lat": -32.81271181893654, "lon": 123.07836154475412, "alt_km": 304.3529641703117, "timestamp": "2025-12-11T13:55:00.915378+00:00", "meta": {"OBJECT_NAME": "STARLINK-36047", "OBJECT_ID": "2025-278E", "EPOCH": "2025-12-11T06:00:02.999808", "MEAN_MOTION": 15.90644491, "ECCENTRICITY": 0.00018052, "INCLINATION": 42.9982, "RA_OF_ASC_NODE": 261.3379, "ARG_OF_PERICENTER": 270.4686, "MEAN_ANOMALY": 231.4899, "EPHEMERIS_TYPE": 0, "CLASSIFICATION_TYPE": "U", "NORAD_CAT_ID": 66795, "ELEMENT_SET_NO": 999, "REV_AT_EPOCH": 261, "BSTAR": -0.0036020461, "MEAN_MOTION_DOT": -0.01032909, "MEAN_MOTION_DDOT": 0}, "tle": {"line1": "1 66795U 25278E   25345.25003472 -.01032909  00000+0 -36020-2 0  9997", "line2": "2 66795  42.9982 261.3379 0001805 270.4686 231.4899 15.90644491  2615"}}, "geometry": {"type": "Point", "coordinates": [123.07836154475412, -32.81271181893654]}}]}